[{"OBJECT_NAME":"STARLINK-36658","OBJECT_ID":"2026-033AB","EPOCH":"2026-03-12T20:00:01.999008","MEAN_MOTION":15.71224856,"ECCENTRICITY":0.0001492,"INCLINATION":42.9992,"RA_OF_ASC_NODE":252.1296,"ARG_OF_PERICENTER":268.8992,"MEAN_ANOMALY":43.1236,"EPHEMERIS_TYPE":0,"CLASSIFICATION_TYPE":"U","NORAD_CAT_ID":67846,"ELEMENT_SET_NO":999,"REV_AT_EPOCH":516,"BSTAR":-0.016794,"MEAN_MOTION_DOT":-0.01939864,"MEAN_MOTION_DDOT":0},{"OBJECT_NAME":"STARLINK-36618","OBJECT_ID":"2026-033AC","EPOCH":"2026-03-12T20:00:01.999008","MEAN_MOTION":15.91423482,"ECCENTRICITY":0.0003118,"INCLINATION":42.9793,"RA_OF_ASC_NODE":249.5066,"ARG_OF_PERICENTER":283.6905,"MEAN_ANOMALY":342.0905,"EPHEMERIS_TYPE":0,"CLASSIFICATION_TYPE":"U","NORAD_CAT_ID":67847,"ELEMENT_SET_NO":999,"REV_AT_EPOCH":517,"BSTAR":0.00052101,"MEAN_MOTION_DOT":0.00171687,"MEAN_MOTION_DDOT":1.9097e-5},{"OBJECT_NAME":"STARLINK-36660","OBJECT_ID":"2026-033AD","EPOCH":"2026-03-12T20:00:01.999008","MEAN_MOTION":15.69773921,"ECCENTRICITY":0.0001602,"INCLINATION":42.999,"RA_OF_ASC_NODE":252.1538,"ARG_OF_PERICENTER":268.8177,"MEAN_ANOMALY":33.1235,"EPHEMERIS_TYPE":0,"CLASSIFICATION_TYPE":"U","NORAD_CAT_ID":67848,"ELEMENT_SET_NO":999,"REV_AT_EPOCH":516,"BSTAR":-0.017793,"MEAN_MOTION_DOT":-0.01933673,"MEAN_MOTION_DDOT":0},{"OBJECT_NAME":"STARLINK-36602","OBJECT_ID":"2026-033AE","EPOCH":"2026-03-12T20:00:01.999008","MEAN_MOTION":15.70351091,"ECCENTRICITY":0.0001607,"INCLINATION":42.999,"RA_OF_ASC_NODE":252.1283,"ARG_OF_PERICENTER":270.41,"MEAN_ANOMALY":41.7389,"EPHEMERIS_TYPE":0,"CLASSIFICATION_TYPE":"U","NORAD_CAT_ID":67849,"ELEMENT_SET_NO":999,"REV_AT_EPOCH":516,"BSTAR":-0.017355,"MEAN_MOTION_DOT":-0.0193263,"MEAN_MOTION_DDOT":0},{"OBJECT_NAME":"STARLINK-36840","OBJECT_ID":"2026-034A","EPOCH":"2026-03-12T19:54:18.202176","MEAN_MOTION":15.80942583,"ECCENTRICITY":9.5e-5,"INCLINATION":53.1581,"RA_OF_ASC_NODE":195.6242,"ARG_OF_PERICENTER":97.8625,"MEAN_ANOMALY":262.2506,"EPHEMERIS_TYPE":0,"CLASSIFICATION_TYPE":"U","NORAD_CAT_ID":67850,"ELEMENT_SET_NO":999,"REV_AT_EPOCH":443,"BSTAR":0.00078318,"MEAN_MOTION_DOT":0.00157224,"MEAN_MOTION_DDOT":0},{"OBJECT_NAME":"STARLINK-36348","OBJECT_ID":"2026-034B","EPOCH":"2026-03-12T18:22:11.602848","MEAN_MOTION":15.8096641,"ECCENTRICITY":0.0001132,"INCLINATION":53.1583,"RA_OF_ASC_NODE":195.9348,"ARG_OF_PERICENTER":60.1002,"MEAN_ANOMALY":300.0133,"EPHEMERIS_TYPE":0,"CLASSIFICATION_TYPE":"U","NORAD_CAT_ID":67851,"ELEMENT_SET_NO":999,"REV_AT_EPOCH":442,"BSTAR":0.0010081,"MEAN_MOTION_DOT":0.00203915,"MEAN_MOTION_DDOT":0},{"OBJECT_NAME":"STARLINK-36276","OBJECT_ID":"2026-034C","EPOCH":"2026-03-12T19:52:08.508000","MEAN_MOTION":15.80988726,"ECCENTRICITY":8.98e-5,"INCLINATION":53.1583,"RA_OF_ASC_NODE":195.6119,"ARG_OF_PERICENTER":69.7396,"MEAN_ANOMALY":290.3723,"EPHEMERIS_TYPE":0,"CLASSIFICATION_TYPE":"U","NORAD_CAT_ID":67852,"ELEMENT_SET_NO":999,"REV_AT_EPOCH":443,"BSTAR":0.0011129,"MEAN_MOTION_DOT":0.00226004,"MEAN_MOTION_DDOT":0},{"OBJECT_NAME":"STARLINK-36785","OBJECT_ID":"2026-034D","EPOCH":"2026-03-12T18:20:01.949280","MEAN_MOTION":15.80987782,"ECCENTRICITY":0.0001877,"INCLINATION":53.1583,"RA_OF_ASC_NODE":195.9252,"ARG_OF_PERICENTER":56.4232,"MEAN_ANOMALY":303.697,"EPHEMERIS_TYPE":0,"CLASSIFICATION_TYPE":"U","NORAD_CAT_ID":67853,"ELEMENT_SET_NO":999,"REV_AT_EPOCH":442,"BSTAR":0.0012594,"MEAN_MOTION_DOT":0.00256752,"MEAN_MOTION_DDOT":0},{"OBJECT_NAME":"STARLINK-36608","OBJECT_ID":"2026-034E","EPOCH":"2026-03-12T18:18:57.112992","MEAN_MOTION":15.80968645,"ECCENTRICITY":0.0001256,"INCLINATION":53.1582,"RA_OF_ASC_NODE":195.9195,"ARG_OF_PERICENTER":68.7298,"MEAN_ANOMALY":291.3858,"EPHEMERIS_TYPE":0,"CLASSIFICATION_TYPE":"U","NORAD_CAT_ID":67854,"ELEMENT_SET_NO":999,"REV_AT_EPOCH":441,"BSTAR":0.001084,"MEAN_MOTION_DOT":0.00219738,"MEAN_MOTION_DDOT":0},{"OBJECT_NAME":"STARLINK-36838","OBJECT_ID":"2026-034F","EPOCH":"2026-03-12T19:48:54.167616","MEAN_MOTION":15.81014359,"ECCENTRICITY":0.0001332,"INCLINATION":53.1583,"RA_OF_ASC_NODE":195.5968,"ARG_OF_PERICENTER":50.2931,"MEAN_ANOMALY":309.8209,"EPHEMERIS_TYPE":0,"CLASSIFICATION_TYPE":"U","NORAD_CAT_ID":67855,"ELEMENT_SET_NO":999,"REV_AT_EPOCH":443,"BSTAR":0.0015793,"MEAN_MOTION_DOT":0.00325141,"MEAN_MOTION_DDOT":0},{"OBJECT_NAME":"STARLINK-36843","OBJECT_ID":"2026-034G","EPOCH":"2026-03-12T19:46:44.560704","MEAN_MOTION":15.80995331,"ECCENTRICITY":0.0001222,"INCLINATION":53.1582,"RA_OF_ASC_NODE":195.5877,"ARG_OF_PERICENTER":50.5751,"MEAN_ANOMALY":309.538,"EPHEMERIS_TYPE":0,"CLASSIFICATION_TYPE":"U","NORAD_CAT_ID":67856,"ELEMENT_SET_NO":999,"REV_AT_EPOCH":443,"BSTAR":0.0012756,"MEAN_MOTION_DOT":0.00260254,"MEAN_MOTION_DDOT":0},{"OBJECT_NAME":"STARLINK-36828","OBJECT_ID":"2026-034H","EPOCH":"2026-03-12T19:47:49.231104","MEAN_MOTION":15.80997774,"ECCENTRICITY":8.35e-5,"INCLINATION":53.1582,"RA_OF_ASC_NODE":195.5927,"ARG_OF_PERICENTER":62.3321,"MEAN_ANOMALY":297.7787,"EPHEMERIS_TYPE":0,"CLASSIFICATION_TYPE":"U","NORAD_CAT_ID":67857,"ELEMENT_SET_NO":999,"REV_AT_EPOCH":443,"BSTAR":0.0012791,"MEAN_MOTION_DOT":0.00261035,"MEAN_MOTION_DDOT":0},{"OBJECT_NAME":"STARLINK-36837","OBJECT_ID":"2026-034J","EPOCH":"2026-03-12T19:45:39.827232","MEAN_MOTION":15.80987693,"ECCENTRICITY":9.13e-5,"INCLINATION":53.1585,"RA_OF_ASC_NODE":195.5819,"ARG_OF_PERICENTER":52.3564,"MEAN_ANOMALY":307.7542,"EPHEMERIS_TYPE":0,"CLASSIFICATION_TYPE":"U","NORAD_CAT_ID":67858,"ELEMENT_SET_NO":999,"REV_AT_EPOCH":443,"BSTAR":0.0012442,"MEAN_MOTION_DOT":0.00253552,"MEAN_MOTION_DDOT":0},{"OBJECT_NAME":"STARLINK-36393","OBJECT_ID":"2026-034K","EPOCH":"2026-03-12T19:44:34.873440","MEAN_MOTION":15.81004507,"ECCENTRICITY":9.89e-5,"INCLINATION":53.1585,"RA_OF_ASC_NODE":195.5766,"ARG_OF_PERICENTER":60.5908,"MEAN_ANOMALY":299.5214,"EPHEMERIS_TYPE":0,"CLASSIFICATION_TYPE":"U","NORAD_CAT_ID":67859,"ELEMENT_SET_NO":999,"REV_AT_EPOCH":443,"BSTAR":0.0013673,"MEAN_MOTION_DOT":0.00279788,"MEAN_MOTION_DDOT":0},{"OBJECT_NAME":"STARLINK-35873","OBJECT_ID":"2026-034L","EPOCH":"2026-03-12T19:43:30.061344","MEAN_MOTION":15.8099309,"ECCENTRICITY":9.08e-5,"INCLINATION":53.1585,"RA_OF_ASC_NODE":195.5718,"ARG_OF_PERICENTER":62.5893,"MEAN_ANOMALY":297.5222,"EPHEMERIS_TYPE":0,"CLASSIFICATION_TYPE":"U","NORAD_CAT_ID":67860,"ELEMENT_SET_NO":999,"REV_AT_EPOCH":446,"BSTAR":0.0012003,"MEAN_MOTION_DOT":0.00244369,"MEAN_MOTION_DDOT":0},{"OBJECT_NAME":"STARLINK-36325","OBJECT_ID":"2026-034M","EPOCH":"2026-03-12T19:42:25.251840","MEAN_MOTION":15.81000759,"ECCENTRICITY":8.2e-5,"INCLINATION":53.1582,"RA_OF_ASC_NODE":195.5667,"ARG_OF_PERICENTER":101.6865,"MEAN_ANOMALY":258.425,"EPHEMERIS_TYPE":0,"CLASSIFICATION_TYPE":"U","NORAD_CAT_ID":67861,"ELEMENT_SET_NO":999,"REV_AT_EPOCH":443,"BSTAR":0.0013399,"MEAN_MOTION_DOT":0.00273926,"MEAN_MOTION_DDOT":0},{"OBJECT_NAME":"STARLINK-36332","OBJECT_ID":"2026-034N","EPOCH":"2026-03-12T19:41:20.617728","MEAN_MOTION":15.80989201,"ECCENTRICITY":0.000122,"INCLINATION":53.1582,"RA_OF_ASC_NODE":195.562,"ARG_OF_PERICENTER":89.0467,"MEAN_ANOMALY":271.0696,"EPHEMERIS_TYPE":0,"CLASSIFICATION_TYPE":"U","NORAD_CAT_ID":67862,"ELEMENT_SET_NO":999,"REV_AT_EPOCH":443,"BSTAR":0.0011885,"MEAN_MOTION_DOT":0.00241843,"MEAN_MOTION_DDOT":0}]
