STARLINK-36658          
1 67846U 26033AB  26071.83335647 -.01939864  00000+0 -16794-1 0  9999
2 67846  42.9992 252.1296 0001492 268.8992  43.1236 15.71224856  5167
STARLINK-36618          
1 67847U 26033AC  26071.83335647  .00171687  19097-4  52101-3 0  9993
2 67847  42.9793 249.5066 0003118 283.6905 342.0905 15.91423482  5171
STARLINK-36660          
1 67848U 26033AD  26071.83335647 -.01933673  00000+0 -17793-1 0  9993
2 67848  42.9990 252.1538 0001602 268.8177  33.1235 15.69773921  5161
STARLINK-36602          
1 67849U 26033AE  26071.83335647 -.01932630  00000+0 -17355-1 0  9990
2 67849  42.9990 252.1283 0001607 270.4100  41.7389 15.70351091  5166
STARLINK-36840          
1 67850U 26034A   26071.82937734  .00157224  00000+0  78318-3 0  9990
2 67850  53.1581 195.6242 0000950  97.8625 262.2506 15.80942583  4430
STARLINK-36348          
1 67851U 26034B   26071.76541207  .00203915  00000+0  10081-2 0  9991
2 67851  53.1583 195.9348 0001132  60.1002 300.0133 15.80966410  4429
STARLINK-36276          
1 67852U 26034C   26071.82787625  .00226004  00000+0  11129-2 0  9993
2 67852  53.1583 195.6119 0000898  69.7396 290.3723 15.80988726  4433
STARLINK-36785          
1 67853U 26034D   26071.76391145  .00256752  00000+0  12594-2 0  9995
2 67853  53.1583 195.9252 0001877  56.4232 303.6970 15.80987782  4427
STARLINK-36608          
1 67854U 26034E   26071.76316103  .00219738  00000+0  10840-2 0  9992
2 67854  53.1582 195.9195 0001256  68.7298 291.3858 15.80968645  4416
STARLINK-36838          
1 67855U 26034F   26071.82562694  .00325141  00000+0  15793-2 0  9996
2 67855  53.1583 195.5968 0001332  50.2931 309.8209 15.81014359  4439
STARLINK-36843          
1 67856U 26034G   26071.82412686  .00260254  00000+0  12756-2 0  9991
2 67856  53.1582 195.5877 0001222  50.5751 309.5380 15.80995331  4433
STARLINK-36828          
1 67857U 26034H   26071.82487536  .00261035  00000+0  12791-2 0  9995
2 67857  53.1582 195.5927 0000835  62.3321 297.7787 15.80997774  4435
STARLINK-36837          
1 67858U 26034J   26071.82337763  .00253552  00000+0  12442-2 0  9990
2 67858  53.1585 195.5819 0000913  52.3564 307.7542 15.80987693  4434
STARLINK-36393          
1 67859U 26034K   26071.82262585  .00279788  00000+0  13673-2 0  9996
2 67859  53.1585 195.5766 0000989  60.5908 299.5214 15.81004507  4431
STARLINK-35873          
1 67860U 26034L   26071.82187571  .00244369  00000+0  12003-2 0  9992
2 67860  53.1585 195.5718 0000908  62.5893 297.5222 15.80993090  4469
STARLINK-36325          
1 67861U 26034M   26071.82112560  .00273926  00000+0  13399-2 0  9999
2 67861  53.1582 195.5667 0000820 101.6865 258.4250 15.81000759  4433
STARLINK-36332          
1 67862U 26034N   26071.82037752  .00241843  00000+0  11885-2 0  9990
2 67862  53.1582 195.5620 0001220  89.0467 271.0696 15.80989201  4437
